[{"OBJECT_NAME":"NUSAT-44 (MARIA MITCHELL)","OBJECT_ID":"2024-043AA","EPOCH":"2026-03-09T22:12:18.524160","MEAN_MOTION":15.29764305,"ECCENTRICITY":0.0007331,"INCLINATION":97.5299,"RA_OF_ASC_NODE":207.7691,"ARG_OF_PERICENTER":214.9017,"MEAN_ANOMALY":145.1743,"EPHEMERIS_TYPE":0,"CLASSIFICATION_TYPE":"U","NORAD_CAT_ID":59122,"ELEMENT_SET_NO":999,"REV_AT_EPOCH":11209,"BSTAR":0.00061063193,"MEAN_MOTION_DOT":0.00017562,"MEAN_MOTION_DDOT":0},{"OBJECT_NAME":"STARLINK-31182","OBJECT_ID":"2024-044H","EPOCH":"2026-03-09T10:53:33.640512","MEAN_MOTION":15.27593573,"ECCENTRICITY":3.887e-5,"INCLINATION":42.998,"RA_OF_ASC_NODE":108.0029,"ARG_OF_PERICENTER":227.2517,"MEAN_ANOMALY":132.8302,"EPHEMERIS_TYPE":0,"CLASSIFICATION_TYPE":"U","NORAD_CAT_ID":59159,"ELEMENT_SET_NO":999,"REV_AT_EPOCH":11356,"BSTAR":-0.00011253326,"MEAN_MOTION_DOT":-3.358e-5,"MEAN_MOTION_DDOT":0}]
